{
    "links": {
        "self": "http://www.neowsapp.com/rest/v1/neo/3092278?api_key=iIulBulltgU6a56xZRHN4H3l9WmuAYTsLGpBGhQ2"
    },
    "id": "3092278",
    "neo_reference_id": "3092278",
    "name": "(2000 WJ107)",
    "designation": "2000 WJ107",
    "nasa_jpl_url": "http://ssd.jpl.nasa.gov/sbdb.cgi?sstr=3092278",
    "absolute_magnitude_h": 23.8,
    "estimated_diameter": {
        "kilometers": {
            "estimated_diameter_min": 0.046190746,
            "estimated_diameter_max": 0.1032856481
        },
        "meters": {
            "estimated_diameter_min": 46.1907460282,
            "estimated_diameter_max": 103.2856480504
        },
        "miles": {
            "estimated_diameter_min": 0.0287015901,
            "estimated_diameter_max": 0.0641787064
        },
        "feet": {
            "estimated_diameter_min": 151.544447199,
            "estimated_diameter_max": 338.8636855496
        }
    },
    "is_potentially_hazardous_asteroid": false,
    "close_approach_data": [
        {
            "close_approach_date": "2000-11-19",
            "close_approach_date_full": "2000-Nov-19 14:59",
            "epoch_date_close_approach": 974645940000,
            "relative_velocity": {
                "kilometers_per_second": "13.3757528972",
                "kilometers_per_hour": "48152.710430086",
                "miles_per_hour": "29920.2216558498"
            },
            "miss_distance": {
                "astronomical": "0.0214299011",
                "lunar": "8.3362315279",
                "kilometers": "3205867.558870657",
                "miles": "1992033.7292507866"
            },
            "orbiting_body": "Earth"
        }
    ],
    "orbital_data": {
        "orbit_id": "12",
        "orbit_determination_date": "2017-04-06 09:16:40",
        "first_observation_date": "2000-11-26",
        "last_observation_date": "2000-12-20",
        "data_arc_in_days": 24,
        "observations_used": 33,
        "orbit_uncertainty": "7",
        "minimum_orbit_intersection": ".00439895",
        "jupiter_tisserand_invariant": "3.682",
        "epoch_osculation": "2459000.5",
        "eccentricity": ".5575024321041941",
        "semi_major_axis": "1.947889190173528",
        "inclination": "5.99275894602769",
        "ascending_node_longitude": "237.7488065606969",
        "orbital_period": "992.9898243415407",
        "perihelion_distance": ".8619362291823168",
        "perihelion_argument": "127.4926847449759",
        "aphelion_distance": "3.033842151164738",
        "perihelion_time": "2458780.660065908056",
        "mean_anomaly": "79.70109494886289",
        "mean_motion": ".3625414794544534",
        "equinox": "J2000",
        "orbit_class": {
            "orbit_class_type": "APO",
            "orbit_class_description": "Near-Earth asteroid orbits which cross the Earth’s orbit similar to that of 1862 Apollo",
            "orbit_class_range": "a (semi-major axis) > 1.0 AU; q (perihelion) < 1.017 AU"
        }
    },
    "is_sentry_object": false
}